ONEWEB-0558             
1 56059U 23043P   25262.07103613  .00000093  00000+0  19286-3 0  9995
2 56059  87.9200 298.0900 0001642 102.5528 257.5790 13.21825083122426
ONEWEB-0559             
1 56060U 23043Q   25262.05999788  .00000144  00000+0  31798-3 0  9990
2 56060  87.9199 298.0851 0001568  93.0960 267.0354 13.21825311122438
ONEWEB-0566             
1 56061U 23043R   25262.05368711  .00000139  00000+0  30384-3 0  9991
2 56061  87.9199 298.0842 0001638 101.3242 258.8076 13.21824999122411
ONEWEB-0568             
1 56062U 23043S   25262.30977281 -.00000073  00000+0 -22416-3 0  9994
2 56062  87.8983 282.7512 0002212  93.5628 266.5756 13.16594765123337
ONEWEB-0574             
1 56063U 23043T   25262.04738921  .00000145  00000+0  31868-3 0  9991
2 56063  87.9199 298.0736 0001998  89.9234 270.2129 13.21827076122456
ONEWEB-0575             
1 56064U 23043U   25262.30342804  .00000070  00000+0  14959-3 0  9991
2 56064  87.8975 282.7562 0002236  83.4611 276.6774 13.16595782123322
ONEWEB-0576             
1 56065U 23043V   25262.28443817  .00000170  00000+0  41040-3 0  9997
2 56065  87.8986 282.7554 0002110  91.3877 268.7496 13.16594812123314
ONEWEB-0577             
1 56066U 23043W   25262.29077317  .00000068  00000+0  14333-3 0  9998
2 56066  87.8984 282.7551 0002315  78.7077 281.4314 13.16594444123343
